start=new Date('2023-02-23T00:00:00.000Z').valueOf();
sats=[{"EPHEMERIS_TYPE":"0","REV_AT_EPOCH":"4822","NORAD_CAT_ID":"52372","LAUNCH_DATE":"2022-04-29","REF_FRAME":"TEME","SEMIMAJOR_AXIS":"6917.858","GP_ID":"226474687","CLASSIFICATION_TYPE":"U","MEAN_MOTION":"15.08847414","PERIOD":"95.437","OBJECT_NAME":"STARLINK-3796","CENTER_NAME":"EARTH","INCLINATION":"53.2157","TLE_LINE1":"1 52372U 22045AT  23053.91375299  .00000631  00000-0  57722-4 0  9997","ARG_OF_PERICENTER":"90.4276","DECAY_DATE":null,"MEAN_MOTION_DDOT":"0.0000000000000","OBJECT_ID":"2022-045AT","MEAN_ELEMENT_THEORY":"SGP4","ELEMENT_SET_NO":"999","RCS_SIZE":"LARGE","SITE":"AFETR","MEAN_MOTION_DOT":"0.00000631","PERIAPSIS":"539.018","MEAN_ANOMALY":"269.6833","TLE_LINE2":"2 52372  53.2157 135.5888 0001019  90.4276 269.6833 15.08847414 48226","EPOCH":"2023-02-22T21:55:48.258336","TIME_SYSTEM":"UTC","OBJECT_TYPE":"PAYLOAD","COUNTRY_CODE":"US","APOAPSIS":"540.428","FILE":"3825529","RA_OF_ASC_NODE":"135.5888","BSTAR":"0.00005772200000","ECCENTRICITY":"0.00010190"},{"MEAN_ELEMENT_THEORY":"SGP4","OBJECT_ID":"2022-045AU","MEAN_MOTION_DDOT":"0.0000000000000","DECAY_DATE":null,"ARG_OF_PERICENTER":"91.3983","TLE_LINE1":"1 52373U 22045AU  23053.70399544  .00021019  00000-0  13340-2 0  9993","INCLINATION":"53.2168","CENTER_NAME":"EARTH","OBJECT_NAME":"STARLINK-3550","PERIOD":"95.436","MEAN_MOTION":"15.08861621","GP_ID":"226474938","CLASSIFICATION_TYPE":"U","SEMIMAJOR_AXIS":"6917.814","LAUNCH_DATE":"2022-04-29","REF_FRAME":"TEME","REV_AT_EPOCH":"4820","NORAD_CAT_ID":"52373","EPHEMERIS_TYPE":"0","ECCENTRICITY":"0.00015630","BSTAR":"0.00133400000000","RA_OF_ASC_NODE":"136.5293","FILE":"3825529","APOAPSIS":"540.761","OBJECT_TYPE":"PAYLOAD","COUNTRY_CODE":"US","TIME_SYSTEM":"UTC","EPOCH":"2023-02-22T16:53:45.206016","TLE_LINE2":"2 52373  53.2168 136.5293 0001563  91.3983 268.7189 15.08861621 48207","MEAN_ANOMALY":"268.7189","PERIAPSIS":"538.598","RCS_SIZE":"LARGE","SITE":"AFETR","MEAN_MOTION_DOT":"0.00021019","ELEMENT_SET_NO":"999"},{"RA_OF_ASC_NODE":"136.5130","BSTAR":"0.00027378000000","ECCENTRICITY":"0.00014820","OBJECT_TYPE":"PAYLOAD","COUNTRY_CODE":"US","APOAPSIS":"540.703","FILE":"3825529","EPOCH":"2023-02-22T16:59:02.401152","TLE_LINE2":"2 52374  53.2167 136.5130 0001482 105.2654 254.8502 15.08862041 48209","TIME_SYSTEM":"UTC","SITE":"AFETR","RCS_SIZE":"LARGE","MEAN_MOTION_DOT":"0.00004074","ELEMENT_SET_NO":"999","MEAN_ANOMALY":"254.8502","PERIAPSIS":"538.653","DECAY_DATE":null,"OBJECT_ID":"2022-045AV","MEAN_ELEMENT_THEORY":"SGP4","MEAN_MOTION_DDOT":"0.0000000000000","INCLINATION":"53.2167","TLE_LINE1":"1 52374U 22045AV  23053.70766668  .00004074  00000-0  27378-3 0  9998","ARG_OF_PERICENTER":"105.2654","MEAN_MOTION":"15.08862041","SEMIMAJOR_AXIS":"6917.813","GP_ID":"226475163","CLASSIFICATION_TYPE":"U","PERIOD":"95.436","OBJECT_NAME":"STARLINK-3762","CENTER_NAME":"EARTH","NORAD_CAT_ID":"52374","REV_AT_EPOCH":"4820","EPHEMERIS_TYPE":"0","REF_FRAME":"TEME","LAUNCH_DATE":"2022-04-29"},{"NORAD_CAT_ID":"52375","REV_AT_EPOCH":"4820","EPHEMERIS_TYPE":"0","LAUNCH_DATE":"2022-04-29","REF_FRAME":"TEME","MEAN_MOTION":"15.08879913","SEMIMAJOR_AXIS":"6917.758","GP_ID":"226473938","CLASSIFICATION_TYPE":"U","PERIOD":"95.435","OBJECT_NAME":"STARLINK-3785","CENTER_NAME":"EARTH","INCLINATION":"53.2160","ARG_OF_PERICENTER":"117.1618","TLE_LINE1":"1 52375U 22045AW  23053.71135285  .00016039  00000-0  10224-2 0  9990","DECAY_DATE":null,"OBJECT_ID":"2022-045AW","MEAN_ELEMENT_THEORY":"SGP4","MEAN_MOTION_DDOT":"0.0000000000000","RCS_SIZE":"LARGE","SITE":"AFETR","MEAN_MOTION_DOT":"0.00016039","ELEMENT_SET_NO":"999","MEAN_ANOMALY":"242.9504","PERIAPSIS":"538.749","EPOCH":"2023-02-22T17:04:20.886240","TLE_LINE2":"2 52375  53.2160 136.4998 0001264 117.1618 242.9504 15.08879913 48200","TIME_SYSTEM":"UTC","COUNTRY_CODE":"US","OBJECT_TYPE":"PAYLOAD","APOAPSIS":"540.498","FILE":"3825529","RA_OF_ASC_NODE":"136.4998","BSTAR":"0.00102240000000","ECCENTRICITY":"0.00012640"},{"CENTER_NAME":"EARTH","PERIOD":"95.436","OBJECT_NAME":"STARLINK-3767","CLASSIFICATION_TYPE":"U","GP_ID":"226474188","SEMIMAJOR_AXIS":"6917.823","MEAN_MOTION":"15.08858800","REF_FRAME":"TEME","LAUNCH_DATE":"2022-04-29","EPHEMERIS_TYPE":"0","NORAD_CAT_ID":"52376","REV_AT_EPOCH":"4820","MEAN_MOTION_DDOT":"0.0000000000000","MEAN_ELEMENT_THEORY":"SGP4","OBJECT_ID":"2022-045AX","DECAY_DATE":null,"ARG_OF_PERICENTER":"102.3105","TLE_LINE1":"1 52376U 22045AX  23053.70031116  .00007258  00000-0  47342-3 0  9993","INCLINATION":"53.2164","TIME_SYSTEM":"UTC","TLE_LINE2":"2 52376  53.2164 136.5473 0001429 102.3105 257.8047 15.08858800 48203","EPOCH":"2023-02-22T16:48:26.884224","PERIAPSIS":"538.699","MEAN_ANOMALY":"257.8047","ELEMENT_SET_NO":"999","RCS_SIZE":"LARGE","SITE":"AFETR","MEAN_MOTION_DOT":"0.00007258","ECCENTRICITY":"0.00014290","BSTAR":"0.00047342000000","RA_OF_ASC_NODE":"136.5473","FILE":"3825529","APOAPSIS":"540.676","COUNTRY_CODE":"US","OBJECT_TYPE":"PAYLOAD"},{"TIME_SYSTEM":"UTC","EPOCH":"2023-02-22T22:00:00.999936","TLE_LINE2":"2 52377  53.2136 135.6053 0001311  74.2354   0.7654 15.07215185  1301","MEAN_ANOMALY":"0.7654","PERIAPSIS":"543.809","SITE":"AFETR","RCS_SIZE":"LARGE","MEAN_MOTION_DOT":"-0.00003231","ELEMENT_SET_NO":"999","ECCENTRICITY":"0.00013110","RA_OF_ASC_NODE":"135.6053","BSTAR":"-0.00019365000000","FILE":"3825529","COUNTRY_CODE":"US","OBJECT_TYPE":"PAYLOAD","APOAPSIS":"545.624","OBJECT_NAME":"STARLINK-3805","PERIOD":"95.540","CENTER_NAME":"EARTH","MEAN_MOTION":"15.07215185","SEMIMAJOR_AXIS":"6922.851","CLASSIFICATION_TYPE":"U","GP_ID":"226475439","LAUNCH_DATE":"2022-04-29","REF_FRAME":"TEME","NORAD_CAT_ID":"52377","REV_AT_EPOCH":"130","EPHEMERIS_TYPE":"0","OBJECT_ID":"2022-045AY","MEAN_ELEMENT_THEORY":"SGP4","MEAN_MOTION_DDOT":"0.0000000000000","DECAY_DATE":null,"TLE_LINE1":"1 52377U 22045AY  23053.91667824 -.00003231  00000-0 -19365-3 0  9991","ARG_OF_PERICENTER":"74.2354","INCLINATION":"53.2136"},{"NORAD_CAT_ID":"52378","REV_AT_EPOCH":"4820","EPHEMERIS_TYPE":"0","LAUNCH_DATE":"2022-04-29","REF_FRAME":"TEME","MEAN_MOTION":"15.08871621","GP_ID":"226475664","CLASSIFICATION_TYPE":"U","SEMIMAJOR_AXIS":"6917.784","CENTER_NAME":"EARTH","PERIOD":"95.436","OBJECT_NAME":"STARLINK-3806","INCLINATION":"53.2142","ARG_OF_PERICENTER":"98.9407","TLE_LINE1":"1 52378U 22045AZ  23053.69295533  .00025017  00000-0  15830-2 0  9997","DECAY_DATE":null,"MEAN_ELEMENT_THEORY":"SGP4","OBJECT_ID":"2022-045AZ","MEAN_MOTION_DDOT":"0.0000000000000","RCS_SIZE":"LARGE","SITE":"AFETR","MEAN_MOTION_DOT":"0.00025017","ELEMENT_SET_NO":"999","MEAN_ANOMALY":"261.1724","PERIAPSIS":"538.801","EPOCH":"2023-02-22T16:37:51.340512","TLE_LINE2":"2 52378  53.2142 136.5808 0001225  98.9407 261.1724 15.08871621 48208","TIME_SYSTEM":"UTC","APOAPSIS":"540.496","OBJECT_TYPE":"PAYLOAD","COUNTRY_CODE":"US","FILE":"3825529","BSTAR":"0.00158300000000","RA_OF_ASC_NODE":"136.5808","ECCENTRICITY":"0.00012250"},{"BSTAR":"0.00151550000000","RA_OF_ASC_NODE":"136.5654","ECCENTRICITY":"0.00015410","APOAPSIS":"540.750","COUNTRY_CODE":"US","OBJECT_TYPE":"PAYLOAD","FILE":"3825529","TLE_LINE2":"2 52379  53.2132 136.5654 0001541  83.6589 276.4579 15.08860133 48203","EPOCH":"2023-02-22T16:43:09.536160","TIME_SYSTEM":"UTC","ELEMENT_SET_NO":"999","SITE":"AFETR","RCS_SIZE":"LARGE","MEAN_MOTION_DOT":"0.00023927","PERIAPSIS":"538.618","MEAN_ANOMALY":"276.4579","DECAY_DATE":null,"MEAN_MOTION_DDOT":"0.0000000000000","MEAN_ELEMENT_THEORY":"SGP4","OBJECT_ID":"2022-045BA","INCLINATION":"53.2132","ARG_OF_PERICENTER":"83.6589","TLE_LINE1":"1 52379U 22045BA  23053.69663815  .00023927  00000-0  15155-2 0  9998","GP_ID":"226474438","CLASSIFICATION_TYPE":"U","SEMIMAJOR_AXIS":"6917.819","MEAN_MOTION":"15.08860133","CENTER_NAME":"EARTH","PERIOD":"95.436","OBJECT_NAME":"STARLINK-3800","EPHEMERIS_TYPE":"0","REV_AT_EPOCH":"4820","NORAD_CAT_ID":"52379","LAUNCH_DATE":"2022-04-29","REF_FRAME":"TEME"},{"FILE":"3824837","COUNTRY_CODE":"US","OBJECT_TYPE":"PAYLOAD","APOAPSIS":"540.839","ECCENTRICITY":"0.00016240","RA_OF_ASC_NODE":"127.2800","BSTAR":"0.00021874000000","PERIAPSIS":"538.592","MEAN_ANOMALY":"258.3895","ELEMENT_SET_NO":"999","SITE":"AFETR","RCS_SIZE":"LARGE","MEAN_MOTION_DOT":"0.00003196","TIME_SYSTEM":"UTC","TLE_LINE2":"2 52380  53.2161 127.2800 0001624 101.7279 258.3895 15.08849747 48317","EPOCH":"2023-02-22T13:01:55.361568","ARG_OF_PERICENTER":"101.7279","TLE_LINE1":"1 52380U 22045BB  23053.54300187  .00003196  00000-0  21874-3 0  9996","INCLINATION":"53.2161","MEAN_MOTION_DDOT":"0.0000000000000","OBJECT_ID":"2022-045BB","MEAN_ELEMENT_THEORY":"SGP4","DECAY_DATE":null,"LAUNCH_DATE":"2022-04-29","REF_FRAME":"TEME","EPHEMERIS_TYPE":"0","NORAD_CAT_ID":"52380","REV_AT_EPOCH":"4831","PERIOD":"95.437","OBJECT_NAME":"STARLINK-3793","CENTER_NAME":"EARTH","SEMIMAJOR_AXIS":"6917.851","CLASSIFICATION_TYPE":"U","GP_ID":"226440868","MEAN_MOTION":"15.08849747"},{"DECAY_DATE":null,"MEAN_MOTION_DDOT":"0.0000000000000","OBJECT_ID":"2022-045BC","MEAN_ELEMENT_THEORY":"SGP4","INCLINATION":"53.2130","TLE_LINE1":"1 52381U 22045BC  23053.49055738  .00030192  00000-0  19063-2 0  9992","ARG_OF_PERICENTER":"108.8684","SEMIMAJOR_AXIS":"6917.839","CLASSIFICATION_TYPE":"U","GP_ID":"226441318","MEAN_MOTION":"15.08853527","PERIOD":"95.437","OBJECT_NAME":"STARLINK-3803","CENTER_NAME":"EARTH","EPHEMERIS_TYPE":"0","NORAD_CAT_ID":"52381","REV_AT_EPOCH":"4817","REF_FRAME":"TEME","LAUNCH_DATE":"2022-04-29","RA_OF_ASC_NODE":"137.4897","BSTAR":"0.00190630000000","ECCENTRICITY":"0.00010320","OBJECT_TYPE":"PAYLOAD","COUNTRY_CODE":"US","APOAPSIS":"540.418","FILE":"3824837","TLE_LINE2":"2 52381  53.2130 137.4897 0001032 108.8684 251.2421 15.08853527 48176","EPOCH":"2023-02-22T11:46:24.157632","TIME_SYSTEM":"UTC","ELEMENT_SET_NO":"999","MEAN_MOTION_DOT":"0.00030192","SITE":"AFETR","RCS_SIZE":"LARGE","PERIAPSIS":"538.990","MEAN_ANOMALY":"251.2421"}];
